

(in-package orbital-elements-parse)




;;;;;;;;;;;;;;;;;;;;;;;;;;;;;;;;;;;;;;;;;;;;;;;;;;;;;;;;;;;;;;;;
;; JPL
;;;;;;;;;;;;;;;;;;;;;;;;;;;;;;;;;;;;;;;;;;;;;;;;;;;;;;;;;;;;;;;;
    
(defun make-comet-elem-from-jpl-elements (&key epoch tp inc om w qr/km ec id)
  "Make comet-elem from JPL Horizon EPOCH TP INC OM W QR EC.
Note that EPOCH and TIME-PERI are in in JD, just like JPL.
This is just a convenience wrapper to transform JPL notation into
SLALIB notation."
  (when (not (every (lambda (x) (typep x 'double-float))
		    (list epoch tp inc om w qr/km ec)))
    (error 
     "All of EPOCH TP INC OM W QR EC must be set and must be a double float"))
  (make-comet-elem
   :id id
   :epoch (- epoch  2400000.5d0)
   :time-peri (- tp  2400000.5d0)
   :orbinc inc
   :anode om
   :perih w
   :q (/ qr/km 1.495978707d8)
   :e ec))
    



#|
parse-jpl-ephem-string is a helper function to turn HORIZONS style orbital element strings into
an EPHEM, like

"FK5/J2000.0 helio. ecliptic osc. elements (au, days, deg., period=Julian yrs): 
 
  EPOCH=  2456388.5 != 2013-Apr-06.0000000 (CT)   RMSW= n.a.                   
   EC= 1.000004876624184   QR= .01247623700403888  TP= 2456625.2675712714      
   OM= 295.6990330916964   W= 345.533055118787     IN= 62.0853836396048        
   A= -2558.375739699086   MA= 0.                  ADIST= 9.999999E99          
   PER= 9.999999E99        N= 7.617E-6             ANGMOM= .002717307          
   DAN= .01268             DDN= .78706             L= 288.8119264              
   B= -12.7532999          MOID= .0231545          TP= 2013-Nov-28.7675712714  "

This can be messed up, because EC digits can extend all the way to QR

However, the correct data in the JPL response is in the $$SOE ... $$EOE block, and the
spacing is different.

$$SOE
2459138.500000000 = A.D. 2020-Oct-16 00:00:00.0000 TDB 
 EC= 5.824782538431438E-03 QR= 8.932691788771608E+09 IN= 2.517053990762085E+01
 OM= 1.275929630944562E+02 W = 2.101175972664384E+02 Tp=  2504483.832642491907
 N = 2.450751768627654E-08 MA= 2.639835467948763E+02 TA= 2.633202734371143E+02
 A = 8.985027620764360E+09 AD= 9.037363452757113E+09 PR= 1.468937020094813E+10
